[{"OBJECT_NAME":"STARLINK-32050","OBJECT_ID":"2024-120C","EPOCH":"2026-03-09T23:10:55.595136","MEAN_MOTION":15.30175967,"ECCENTRICITY":0.0001062,"INCLINATION":53.1611,"RA_OF_ASC_NODE":318.9878,"ARG_OF_PERICENTER":74.8602,"MEAN_ANOMALY":285.2516,"EPHEMERIS_TYPE":0,"CLASSIFICATION_TYPE":"U","NORAD_CAT_ID":60137,"ELEMENT_SET_NO":999,"REV_AT_EPOCH":9641,"BSTAR":6.0217874e-5,"MEAN_MOTION_DOT":1.424e-5,"MEAN_MOTION_DDOT":0},{"OBJECT_NAME":"TRANSPORTER-11 OBJECT A","OBJECT_ID":"2024-149A","EPOCH":"2026-03-09T17:54:54.302112","MEAN_MOTION":15.31141332,"ECCENTRICITY":0.00031096,"INCLINATION":97.378,"RA_OF_ASC_NODE":149.0949,"ARG_OF_PERICENTER":191.001,"MEAN_ANOMALY":169.1164,"EPHEMERIS_TYPE":0,"CLASSIFICATION_TYPE":"U","NORAD_CAT_ID":60468,"ELEMENT_SET_NO":999,"REV_AT_EPOCH":8683,"BSTAR":0.00036053677,"MEAN_MOTION_DOT":0.00010774,"MEAN_MOTION_DDOT":0}]
